STARLINK-1513           
1 45786U 20038BJ  20342.79875448  .00000091  00000-0  25464-4 0  9991
2 45786  53.0013 166.3596 0002355  74.6936 285.4312 15.05579309 28616
STARLINK-1517           
1 45787U 20038BK  20342.80539559  .00000165  00000-0  30510-4 0  9994
2 45787  53.0004 166.3308 0002196  82.2031 277.9206 15.05574357 28618
STARLINK-1522           
1 46027U 20055A   20342.60318282  .00001612  00000-0  12977-3 0  9991
2 46027  53.0021  97.2489 0001829 105.3648 254.7542 15.05591534 19780
STARLINK-1523           
1 46028U 20055B   20342.61646320 -.00000581  00000-0 -20658-4 0  9992
2 46028  53.0050  97.1638 0001970 104.4019 255.7188 15.05581807 19809
STARLINK-1526           
1 46029U 20055C   20342.60982254 -.00000248  00000-0  21555-5 0  9998
2 46029  53.0099  97.1737 0001832 106.3191 253.7999 15.05584119 19797
STARLINK-1534           
1 46030U 20055D   20342.62973492 -.00000702  00000-0 -29004-4 0  9998
2 46030  53.0025  97.1219 0001829 108.0762 252.0426 15.05574215 19751
STARLINK-1544           
1 46031U 20055E   20342.83219709 -.00003643  00000-0 -23083-3 0  9993
2 46031  53.0017  96.2144 0001482  94.5949 265.5208 15.05602870 19319
STARLINK-1555           
1 46032U 20055F   20342.59654633 -.00000335  00000-0 -38223-5 0  9995
2 46032  53.0020  97.2720 0001545  94.2862 265.8302 15.05586388 19791
STARLINK-1556           
1 46033U 20055G   20342.51356683  .00000088  00000-0  25231-4 0  9999
2 46033  53.0003  97.6445 0001817 101.1575 258.9617 15.05580749 19261
STARLINK-1557           
1 46034U 20055H   20343.11432545 -.00000650  00000-0 -25452-4 0  9991
2 46034  53.0002  94.9469 0001526 105.3460 254.7696 15.05586131 19355
STARLINK-1558           
1 46035U 20055J   20342.58990236 -.00000568  00000-0 -19832-4 0  9991
2 46035  53.0014  97.3016 0001609  79.6514 280.4655 15.05582001 19790
STARLINK-1560           
1 46036U 20055K   20342.50693013 -.00000172  00000-0  73640-5 0  9995
2 46036  53.0030  97.6733 0001793  94.6899 265.4294 15.05585489 19789
STARLINK-1565           
1 46037U 20055L   20342.76913700 -.00002722  00000-0 -16762-3 0  9996
2 46037  53.0016  96.4968 0001597 102.9292 257.1874 15.05598224 19304
STARLINK-1567           
1 46038U 20055M   20342.58658414 -.00000671  00000-0 -26861-4 0  9998
2 46038  53.0027  97.3168 0001726 106.9345 253.1832 15.05583016 19781
STARLINK-1569           
1 46039U 20055N   20342.59322893 -.00000575  00000-0 -20272-4 0  9992
2 46039  53.0025  97.2854 0001569  94.7007 265.4160 15.05581555 19781
STARLINK-1576           
1 46040U 20055P   20342.61977428  .00001304  00000-0  10862-3 0  9999
2 46040  53.0041  97.1543 0001707  98.4070 261.7112 15.05582097 19755
STARLINK-1580           
1 46041U 20055Q   20342.62309972  .00000079  00000-0  24623-4 0  9993
2 46041  53.0020  97.1472 0001927  94.1786 265.9422 15.05584930 19764
STARLINK-1581           
1 46042U 20055R   20342.60649878 -.00001048  00000-0 -52773-4 0  9990
2 46042  53.0094  97.1779 0001588  78.3492 281.7674 15.05586004 19755
STARLINK-1582           
1 46043U 20055S   20342.59986180 -.00000068  00000-0  14496-4 0  9999
2 46043  53.0010  97.2571 0001531  89.8502 270.2662 15.05584921 19781
STARLINK-1584           
1 46044U 20055T   20342.81227977  .00001221  00000-0  10292-3 0  9997
2 46044  53.0071  96.2729 0001828 100.6428 259.4766 15.05587807 19310
STARLINK-1591           
1 46045U 20055U   20342.75919047 -.00000749  00000-0 -32212-4 0  9990
2 46045  53.0004  96.5429 0001681 107.3725 252.7447 15.05581416 19309
STARLINK-1514           
1 46046U 20055V   20342.96878068 -.00000893  00000-0 -41034-4 0  9993
2 46046  53.0521  85.5770 0001343  92.4882 267.6261 15.06413101 19477
STARLINK-1524           
1 46047U 20055W   20342.58176446 -.00000009  00000-0  18294-4 0  9993
2 46047  53.0611  87.3028 0001303  75.8491 284.2643 15.06390062 19920
STARLINK-1527           
1 46048U 20055X   20342.77711854 -.00000186  00000-0  64172-5 0  9996
2 46048  53.0600  86.4383 0001302  95.6123 264.5015 15.06395594 19440
STARLINK-1530           
1 46049U 20055Y   20342.77343632  .00000051  00000-0  22326-4 0  9996
2 46049  53.0608  86.4551 0001287  87.5815 272.5321 15.06398984 19418
STARLINK-1535           
1 46050U 20055Z   20343.13462683 -.00016325  00000-0 -10778-2 0  9996
2 46050  53.0375  84.8647 0002212 100.3059 259.8179 15.06457565 19478
STARLINK-1540           
1 46051U 20055AA  20342.54489658 -.00002401  00000-0 -14237-3 0  9997
2 46051  53.0448  87.4505 0000986 108.3960 251.7136 15.06395603 19936
STARLINK-1541           
1 46052U 20055AB  20342.59651973  .00001440  00000-0  11557-3 0  9996
2 46052  53.0551  87.2524 0000541  96.4873 263.6178 15.06381984 19416
STARLINK-1543           
1 46053U 20055AC  20342.60020940 -.00006942  00000-0 -44819-3 0  9994
2 46053  53.0407  87.2272 0000639 137.7072 222.3966 15.06356006 19419
STARLINK-1548           
1 46054U 20055AD  20342.80658462 -.00005266  00000-0 -33478-3 0  9990
2 46054  53.0230  86.3498 0002591 191.8501 168.2427 15.06401890 19424
STARLINK-1554           
1 46055U 20055AE  20342.59282240 -.00000299  00000-0 -11735-5 0  9999
2 46055  53.0567  87.2662 0001853 140.4076 219.7048 15.06396439 19937
STARLINK-1561           
1 46056U 20055AF  20343.14568489  .00003457  00000-0  25084-3 0  9991
2 46056  53.0286  84.7821 0002705 111.5406 248.5871 15.06407129 19470
STARLINK-1562           
1 46057U 20055AG  20343.15230714 -.00001210  00000-0 -63913-4 0  9991
2 46057  53.0014  84.7773 0001514 102.5418 257.5739 15.05575546 19488
STARLINK-1564           
1 46058U 20055AH  20343.15677753  .00032677  00000-0  22126-2 0  9998
2 46058  53.0607  84.7281 0002020 115.0441 245.0758 15.06229639 19482
STARLINK-1570           
1 46059U 20055AJ  20342.89870885 -.00000758  00000-0 -31979-4 0  9995
2 46059  53.0504  85.8828 0001020 115.4534 244.6561 15.06420856 19441
STARLINK-1572           
1 46060U 20055AK  20343.16047281 -.00000445  00000-0 -10993-4 0  9990
2 46060  53.0577  84.7176 0001048  91.5594 268.5515 15.06408265 19474
STARLINK-1573           
1 46061U 20055AL  20342.55596272 -.00000374  00000-0 -62450-5 0  9999
2 46061  53.0579  87.4227 0001575  92.0150 268.1019 15.06379974 19922
STARLINK-1574           
1 46062U 20055AM  20343.11991486 -.00000618  00000-0 -22590-4 0  9990
2 46062  53.0581  84.8979 0001193  88.1697 271.9429 15.06383940 19463
STARLINK-1577           
1 46063U 20055AN  20343.11623498 -.00000916  00000-0 -42597-4 0  9996
2 46063  53.0596  84.9133 0001224 100.3294 259.7833 15.06386675 19469
STARLINK-1583           
1 46064U 20055AP  20342.48592918 -.00000100  00000-0  12180-4 0  9997
2 46064  53.0608  87.7357 0001353  93.0526 267.0618 15.06394960 19382
STARLINK-1515           
1 46065U 20055AQ  20342.71046333 -.00000851  00000-0 -39228-4 0  9995
2 46065  53.0036  66.7518 0001199  83.1328 276.9796 15.05579894 19726
STARLINK-1525           
1 46066U 20055AR  20342.72042220  .00001330  00000-0  11038-3 0  9997
2 46066  53.0037  66.7078 0001267  90.9613 269.1520 15.05588097 19698
STARLINK-1529           
1 46067U 20055AS  20342.65735458  .00000670  00000-0  65128-4 0  9998
2 46067  52.9891  67.0623 0001468  72.0277 288.0870 15.05582359 19687
STARLINK-1532           
1 46068U 20055AT  20342.53785864 -.00000427  00000-0 -10106-4 0  9990
2 46068  52.9936  67.5723 0001394  67.6305 292.4831 15.05588482 20203
STARLINK-1533           
1 46069U 20055AU  20342.55115072 -.00000585  00000-0 -21012-4 0  9994
2 46069  53.0112  67.4264 0000839 108.0521 252.0558 15.05581586 20211
STARLINK-1536           
1 46070U 20055AV  20342.49803625  .00001057  00000-0  91672-4 0  9999
2 46070  53.0028  67.7083 0001218  90.3071 269.8057 15.05582876 20208
STARLINK-1538           
1 46071U 20055AW  20342.51796570 -.00000781  00000-0 -34431-4 0  9998
2 46071  53.0027  67.6180 0001212  79.5108 280.6017 15.05576998 20204
STARLINK-1539           
1 46072U 20055AX  20342.54118019  .00001268  00000-0  10620-3 0  9990
2 46072  52.9866  67.6006 0001319  78.0657 282.0479 15.05583363 20192
STARLINK-1542           
1 46073U 20055AY  20342.55777669 -.00002216  00000-0 -13301-3 0  9999
2 46073  53.0035  67.4375 0001241  99.9596 260.1532 15.05577266 20202
STARLINK-1549           
1 46074U 20055AZ  20342.54452416  .00000745  00000-0  70287-4 0  9999
2 46074  53.0163  67.4238 0001412  73.1193 286.9950 15.05579151 20193
STARLINK-1551           
1 46075U 20055BA  20342.50135273  .00001242  00000-0  10439-3 0  9990
2 46075  53.0022  67.6919 0001135  84.7742 275.3375 15.05583540 20196
STARLINK-1552           
1 46076U 20055BB  20343.12866580 -.00001343  00000-0 -72975-4 0  9990
2 46076  53.0021  64.8850 0001100  96.9970 263.1143 15.05590040 19750
STARLINK-1559           
1 46077U 20055BC  20342.50800031  .00002340  00000-0  17967-3 0  9996
2 46077  53.0027  67.6634 0001135  85.2304 274.8813 15.05588197 20157
STARLINK-1563           
1 46078U 20055BD  20342.55445967 -.00000393  00000-0 -78301-5 0  9994
2 46078  53.0051  67.4460 0001199  91.3092 268.8033 15.05587695 20173
STARLINK-1566           
1 46079U 20055BE  20342.74697604 -.00000298  00000-0 -13118-5 0  9992
2 46079  53.0112  66.5407 0001262  79.1794 280.9336 15.05575396 19700
STARLINK-1568           
1 46080U 20055BF  20342.77020236  .00000814  00000-0  75035-4 0  9995
2 46080  53.0027  66.4859 0001332  73.5534 286.5600 15.05583575 19709
STARLINK-1571           
1 46081U 20055BG  20342.52790942 -.00000736  00000-0 -31358-4 0  9992
2 46081  53.0032  67.5784 0001288 101.5385 258.5748 15.05579447 20191
STARLINK-1578           
1 46082U 20055BH  20342.56109732  .00001035  00000-0  90180-4 0  9997
2 46082  53.0021  67.4245 0001187  90.1496 269.9628 15.05590535 20201
STARLINK-1579           
1 46083U 20055BJ  20342.53454078  .00001172  00000-0  99559-4 0  9992
2 46083  52.9971  67.5709 0001341  77.6972 282.4166 15.05583300 20198
STARLINK-1585           
1 46117U 20057A   20342.91668981 -.00030874  00000-0 -21074-2 0  9992
2 46117  53.0014 265.8255 0001727  68.3995   5.2150 15.05607559 17963
